ISS (ZARYA)             
1 25544U 98067A   25351.57133537  .00007597  00000+0  14274-3 0  9998
2 25544  51.6310 118.5527 0003182 262.6214  97.4413 15.49636687543605
CSS (TIANHE)            
1 48274U 21035A   25351.45427678  .00020985  00000+0  26148-3 0  9992
2 48274  41.4681 348.0821 0007736  71.5092 288.6587 15.59380496264763
ISS (NAUKA)             
1 49044U 21066A   25351.57133537  .00007597  00000+0  14274-3 0  9994
2 49044  51.6310 118.5527 0003182 262.6214  97.4413 15.49636687230441
FREGAT DEB              
1 49271U 11037PF  25349.97149260  .00003730  00000+0  85401-2 0  9998
2 49271  51.6469 189.8745 0862473 230.7116 121.4133 12.34468246202333
CSS (WENTIAN)           
1 53239U 22085A   25351.45427678  .00020985  00000+0  26148-3 0  9995
2 53239  41.4681 348.0821 0007736  71.5092 288.6587 15.59380496173848
CSS (MENGTIAN)          
1 54216U 22143A   25351.45427678  .00020985  00000+0  26148-3 0  9996
2 54216  41.4681 348.0821 0007736  71.5092 288.6587 15.59380496158645
SHENZHOU-20 (SZ-20)     
1 63632U 25082A   25351.45427678  .00020985  00000+0  26148-3 0  9993
2 63632  41.4681 348.0821 0007736  71.5092 288.6587 15.59380496255308
PROGRESS-MS 31          
1 64751U 25146A   25351.57133537  .00007597  00000+0  14274-3 0  9999
2 64751  51.6310 118.5527 0003182 262.6214  97.4413 15.49636687  6758
TIANZHOU-9              
1 64786U 25149A   25351.45427678  .00020985  00000+0  26148-3 0  9998
2 64786  41.4681 348.0821 0007736  71.5092 288.6587 15.59380496255309
CREW DRAGON 11          
1 65077U 25166A   25351.57133537  .00007597  00000+0  14274-3 0  9993
2 65077  51.6310 118.5527 0003182 262.6214  97.4413 15.49636687  2149
DRAGON CRS-33           
1 65304U 25186A   25351.57133537  .00007597  00000+0  14274-3 0  9998
2 65304  51.6310 118.5527 0003182 262.6214  97.4413 15.49636687   117
PROGRESS-MS 32          
1 65586U 25204A   25351.57133537  .00007597  00000+0  14274-3 0  9991
2 65586  51.6310 118.5527 0003182 262.6214  97.4413 15.49636687   276
