CCSDS_OMM_VERS = 2.0
CREATION_DATE  = 
ORIGINATOR     = 

OBJECT_NAME    = ISS (ZARYA)
OBJECT_ID      = 1998-067A
CENTER_NAME    = EARTH
REF_FRAME      = TEME
TIME_SYSTEM    = UTC
MEAN_ELEMENT_THEORY = SGP/SGP4

EPOCH          = 2025-12-17T13:42:43.375968
MEAN_MOTION    = 15.49636687
ECCENTRICITY   = .00031828
INCLINATION    = 51.6310
RA_OF_ASC_NODE = 118.5527
ARG_OF_PERICENTER = 262.6214
MEAN_ANOMALY   = 97.4413

EPHEMERIS_TYPE = 0
CLASSIFICATION_TYPE = U
NORAD_CAT_ID   = 25544
ELEMENT_SET_NO = 999
REV_AT_EPOCH   = 54360
BSTAR          = .14273627E-3
MEAN_MOTION_DOT = .7597E-4
MEAN_MOTION_DDOT = 0

CCSDS_OMM_VERS = 2.0
CREATION_DATE  = 
ORIGINATOR     = 

OBJECT_NAME    = CSS (TIANHE)
OBJECT_ID      = 2021-035A
CENTER_NAME    = EARTH
REF_FRAME      = TEME
TIME_SYSTEM    = UTC
MEAN_ELEMENT_THEORY = SGP/SGP4

EPOCH          = 2025-12-17T10:54:09.513792
MEAN_MOTION    = 15.59380496
ECCENTRICITY   = .00077365
INCLINATION    = 41.4681
RA_OF_ASC_NODE = 348.0821
ARG_OF_PERICENTER = 71.5092
MEAN_ANOMALY   = 288.6587

EPHEMERIS_TYPE = 0
CLASSIFICATION_TYPE = U
NORAD_CAT_ID   = 48274
ELEMENT_SET_NO = 999
REV_AT_EPOCH   = 26476
BSTAR          = .26147589E-3
MEAN_MOTION_DOT = .20985E-3
MEAN_MOTION_DDOT = 0

CCSDS_OMM_VERS = 2.0
CREATION_DATE  = 
ORIGINATOR     = 

OBJECT_NAME    = ISS (NAUKA)
OBJECT_ID      = 2021-066A
CENTER_NAME    = EARTH
REF_FRAME      = TEME
TIME_SYSTEM    = UTC
MEAN_ELEMENT_THEORY = SGP/SGP4

EPOCH          = 2025-12-17T13:42:43.375968
MEAN_MOTION    = 15.49636687
ECCENTRICITY   = .00031828
INCLINATION    = 51.6310
RA_OF_ASC_NODE = 118.5527
ARG_OF_PERICENTER = 262.6214
MEAN_ANOMALY   = 97.4413

EPHEMERIS_TYPE = 0
CLASSIFICATION_TYPE = U
NORAD_CAT_ID   = 49044
ELEMENT_SET_NO = 999
REV_AT_EPOCH   = 23044
BSTAR          = .14273627E-3
MEAN_MOTION_DOT = .7597E-4
MEAN_MOTION_DDOT = 0

CCSDS_OMM_VERS = 2.0
CREATION_DATE  = 
ORIGINATOR     = 

OBJECT_NAME    = FREGAT DEB
OBJECT_ID      = 2011-037PF
CENTER_NAME    = EARTH
REF_FRAME      = TEME
TIME_SYSTEM    = UTC
MEAN_ELEMENT_THEORY = SGP/SGP4

EPOCH          = 2025-12-15T23:18:56.960640
MEAN_MOTION    = 12.34468246
ECCENTRICITY   = .08624734
INCLINATION    = 51.6469
RA_OF_ASC_NODE = 189.8745
ARG_OF_PERICENTER = 230.7116
MEAN_ANOMALY   = 121.4133

EPHEMERIS_TYPE = 0
CLASSIFICATION_TYPE = U
NORAD_CAT_ID   = 49271
ELEMENT_SET_NO = 999
REV_AT_EPOCH   = 20233
BSTAR          = .8540114E-2
MEAN_MOTION_DOT = .373E-4
MEAN_MOTION_DDOT = 0

CCSDS_OMM_VERS = 2.0
CREATION_DATE  = 
ORIGINATOR     = 

OBJECT_NAME    = CSS (WENTIAN)
OBJECT_ID      = 2022-085A
CENTER_NAME    = EARTH
REF_FRAME      = TEME
TIME_SYSTEM    = UTC
MEAN_ELEMENT_THEORY = SGP/SGP4

EPOCH          = 2025-12-17T10:54:09.513792
MEAN_MOTION    = 15.59380496
ECCENTRICITY   = .00077365
INCLINATION    = 41.4681
RA_OF_ASC_NODE = 348.0821
ARG_OF_PERICENTER = 71.5092
MEAN_ANOMALY   = 288.6587

EPHEMERIS_TYPE = 0
CLASSIFICATION_TYPE = U
NORAD_CAT_ID   = 53239
ELEMENT_SET_NO = 999
REV_AT_EPOCH   = 17384
BSTAR          = .26147589E-3
MEAN_MOTION_DOT = .20985E-3
MEAN_MOTION_DDOT = 0

CCSDS_OMM_VERS = 2.0
CREATION_DATE  = 
ORIGINATOR     = 

OBJECT_NAME    = CSS (MENGTIAN)
OBJECT_ID      = 2022-143A
CENTER_NAME    = EARTH
REF_FRAME      = TEME
TIME_SYSTEM    = UTC
MEAN_ELEMENT_THEORY = SGP/SGP4

EPOCH          = 2025-12-17T10:54:09.513792
MEAN_MOTION    = 15.59380496
ECCENTRICITY   = .00077365
INCLINATION    = 41.4681
RA_OF_ASC_NODE = 348.0821
ARG_OF_PERICENTER = 71.5092
MEAN_ANOMALY   = 288.6587

EPHEMERIS_TYPE = 0
CLASSIFICATION_TYPE = U
NORAD_CAT_ID   = 54216
ELEMENT_SET_NO = 999
REV_AT_EPOCH   = 15864
BSTAR          = .26147589E-3
MEAN_MOTION_DOT = .20985E-3
MEAN_MOTION_DDOT = 0

CCSDS_OMM_VERS = 2.0
CREATION_DATE  = 
ORIGINATOR     = 

OBJECT_NAME    = SHENZHOU-20 (SZ-20)
OBJECT_ID      = 2025-082A
CENTER_NAME    = EARTH
REF_FRAME      = TEME
TIME_SYSTEM    = UTC
MEAN_ELEMENT_THEORY = SGP/SGP4

EPOCH          = 2025-12-17T10:54:09.513792
MEAN_MOTION    = 15.59380496
ECCENTRICITY   = .00077365
INCLINATION    = 41.4681
RA_OF_ASC_NODE = 348.0821
ARG_OF_PERICENTER = 71.5092
MEAN_ANOMALY   = 288.6587

EPHEMERIS_TYPE = 0
CLASSIFICATION_TYPE = U
NORAD_CAT_ID   = 63632
ELEMENT_SET_NO = 999
REV_AT_EPOCH   = 25530
BSTAR          = .26147589E-3
MEAN_MOTION_DOT = .20985E-3
MEAN_MOTION_DDOT = 0

CCSDS_OMM_VERS = 2.0
CREATION_DATE  = 
ORIGINATOR     = 

OBJECT_NAME    = PROGRESS-MS 31
OBJECT_ID      = 2025-146A
CENTER_NAME    = EARTH
REF_FRAME      = TEME
TIME_SYSTEM    = UTC
MEAN_ELEMENT_THEORY = SGP/SGP4

EPOCH          = 2025-12-17T13:42:43.375968
MEAN_MOTION    = 15.49636687
ECCENTRICITY   = .00031828
INCLINATION    = 51.6310
RA_OF_ASC_NODE = 118.5527
ARG_OF_PERICENTER = 262.6214
MEAN_ANOMALY   = 97.4413

EPHEMERIS_TYPE = 0
CLASSIFICATION_TYPE = U
NORAD_CAT_ID   = 64751
ELEMENT_SET_NO = 999
REV_AT_EPOCH   = 675
BSTAR          = .14273627E-3
MEAN_MOTION_DOT = .7597E-4
MEAN_MOTION_DDOT = 0

CCSDS_OMM_VERS = 2.0
CREATION_DATE  = 
ORIGINATOR     = 

OBJECT_NAME    = TIANZHOU-9
OBJECT_ID      = 2025-149A
CENTER_NAME    = EARTH
REF_FRAME      = TEME
TIME_SYSTEM    = UTC
MEAN_ELEMENT_THEORY = SGP/SGP4

EPOCH          = 2025-12-17T10:54:09.513792
MEAN_MOTION    = 15.59380496
ECCENTRICITY   = .00077365
INCLINATION    = 41.4681
RA_OF_ASC_NODE = 348.0821
ARG_OF_PERICENTER = 71.5092
MEAN_ANOMALY   = 288.6587

EPHEMERIS_TYPE = 0
CLASSIFICATION_TYPE = U
NORAD_CAT_ID   = 64786
ELEMENT_SET_NO = 999
REV_AT_EPOCH   = 25530
BSTAR          = .26147589E-3
MEAN_MOTION_DOT = .20985E-3
MEAN_MOTION_DDOT = 0

CCSDS_OMM_VERS = 2.0
CREATION_DATE  = 
ORIGINATOR     = 

OBJECT_NAME    = CREW DRAGON 11
OBJECT_ID      = 2025-166A
CENTER_NAME    = EARTH
REF_FRAME      = TEME
TIME_SYSTEM    = UTC
MEAN_ELEMENT_THEORY = SGP/SGP4

EPOCH          = 2025-12-17T13:42:43.375968
MEAN_MOTION    = 15.49636687
ECCENTRICITY   = .00031828
INCLINATION    = 51.6310
RA_OF_ASC_NODE = 118.5527
ARG_OF_PERICENTER = 262.6214
MEAN_ANOMALY   = 97.4413

EPHEMERIS_TYPE = 0
CLASSIFICATION_TYPE = U
NORAD_CAT_ID   = 65077
ELEMENT_SET_NO = 999
REV_AT_EPOCH   = 214
BSTAR          = .14273627E-3
MEAN_MOTION_DOT = .7597E-4
MEAN_MOTION_DDOT = 0

CCSDS_OMM_VERS = 2.0
CREATION_DATE  = 
ORIGINATOR     = 

OBJECT_NAME    = DRAGON CRS-33
OBJECT_ID      = 2025-186A
CENTER_NAME    = EARTH
REF_FRAME      = TEME
TIME_SYSTEM    = UTC
MEAN_ELEMENT_THEORY = SGP/SGP4

EPOCH          = 2025-12-17T13:42:43.375968
MEAN_MOTION    = 15.49636687
ECCENTRICITY   = .00031828
INCLINATION    = 51.6310
RA_OF_ASC_NODE = 118.5527
ARG_OF_PERICENTER = 262.6214
MEAN_ANOMALY   = 97.4413

EPHEMERIS_TYPE = 0
CLASSIFICATION_TYPE = U
NORAD_CAT_ID   = 65304
ELEMENT_SET_NO = 999
REV_AT_EPOCH   = 11
BSTAR          = .14273627E-3
MEAN_MOTION_DOT = .7597E-4
MEAN_MOTION_DDOT = 0

CCSDS_OMM_VERS = 2.0
CREATION_DATE  = 
ORIGINATOR     = 

OBJECT_NAME    = PROGRESS-MS 32
OBJECT_ID      = 2025-204A
CENTER_NAME    = EARTH
REF_FRAME      = TEME
TIME_SYSTEM    = UTC
MEAN_ELEMENT_THEORY = SGP/SGP4

EPOCH          = 2025-12-17T13:42:43.375968
MEAN_MOTION    = 15.49636687
ECCENTRICITY   = .00031828
INCLINATION    = 51.6310
RA_OF_ASC_NODE = 118.5527
ARG_OF_PERICENTER = 262.6214
MEAN_ANOMALY   = 97.4413

EPHEMERIS_TYPE = 0
CLASSIFICATION_TYPE = U
NORAD_CAT_ID   = 65586
ELEMENT_SET_NO = 999
REV_AT_EPOCH   = 27
BSTAR          = .14273627E-3
MEAN_MOTION_DOT = .7597E-4
MEAN_MOTION_DDOT = 0

